ONEWEB-0228             
1 48780U 21045P   24106.40732330  .00000103  00000+0  24046-3 0  9996
2 48780  87.9020  56.9391 0001795  82.2216 277.9119 13.15551252140091
